OBJECT_NAME,OBJECT_ID,EPOCH,MEAN_MOTION,ECCENTRICITY,INCLINATION,RA_OF_ASC_NODE,ARG_OF_PERICENTER,MEAN_ANOMALY,EPHEMERIS_TYPE,CLASSIFICATION_TYPE,NORAD_CAT_ID,ELEMENT_SET_NO,REV_AT_EPOCH,BSTAR,MEAN_MOTION_DOT,MEAN_MOTION_DDOT
STARLINK-3218,2021-115B,2023-06-13T20:20:23.812512,15.08839195,.0001008,53.2177,317.6894,74.8981,285.2123,0,U,49725,999,8459,.27685E-4,.153E-5,0
STARLINK-3237,2021-115C,2023-06-14T11:04:01.180128,15.08838518,.0001213,53.2193,324.8361,88.1874,271.9257,0,U,49726,999,8565,.69867E-4,.824E-5,0
STARLINK-3242,2021-115D,2023-06-14T11:09:19.391328,15.08835938,.0001014,53.2183,324.8161,98.5228,261.5879,0,U,49727,999,8566,.78233E-5,-.163E-5,0
STARLINK-3240,2021-115E,2023-06-13T11:23:50.158176,15.08839016,.0001227,53.2184,329.2571,95.6470,264.4662,0,U,49728,999,8550,-.28756E-4,-.745E-5,0
STARLINK-3251,2021-115F,2023-06-13T11:30:30.942720,15.08835246,.0001052,53.2172,329.2489,82.9760,277.1352,0,U,49729,999,8550,.32879E-4,.235E-5,0
STARLINK-3249,2021-115G,2023-06-14T11:31:54.250464,15.08832191,.000106,53.2180,324.7537,91.7674,268.3440,0,U,49730,999,8565,.16078E-3,.2271E-4,0
STARLINK-3228,2021-115H,2023-06-13T21:06:44.725248,15.08846918,.0001175,53.2165,327.4395,98.4199,261.6926,0,U,49731,999,8445,.30264E-3,.4533E-4,0
STARLINK-3246,2021-115J,2023-06-14T11:42:29.742336,15.08836625,.0001303,53.2199,324.6837,85.5524,274.5617,0,U,49732,999,8565,.40264E-4,.353E-5,0
STARLINK-3252,2021-115K,2023-06-14T11:35:49.411392,15.08835361,.0001123,53.2191,324.7357,100.8721,259.2398,0,U,49733,999,8565,.15143E-4,-.47E-6,0
STARLINK-3238,2021-115L,2023-06-14T10:28:15.513888,15.08837766,.0001065,53.2174,314.9686,101.4201,258.6911,0,U,49734,999,8579,-.78518E-6,-.3E-5,0
STARLINK-3113,2021-115M,2023-06-13T18:07:56.935776,15.08837987,.0000977,53.2180,327.9720,101.9369,258.1732,0,U,49735,999,8443,.38332E-4,.322E-5,0
STARLINK-3148,2021-115N,2023-06-13T10:49:26.910624,15.08833802,.000079,53.2173,319.3754,89.1040,271.0043,0,U,49736,999,8564,.25058E-4,.111E-5,0
STARLINK-3225,2021-115P,2023-06-14T10:33:33.397632,15.08830857,.0001049,53.2169,314.9245,79.8013,280.3097,0,U,49737,999,8579,.23624E-3,.3473E-4,0
STARLINK-3143,2021-115Q,2023-06-13T20:25:40.510848,15.08841929,.0001146,53.2166,317.5707,81.8013,278.3109,0,U,49738,999,8459,.35396E-4,.276E-5,0
STARLINK-3155,2021-115R,2023-06-13T19:57:51.653376,15.08841211,.0001053,53.2174,327.6571,82.6041,277.5071,0,U,49739,999,8555,.94707E-4,.122E-4,0
STARLINK-3226,2021-115S,2023-06-14T09:20:44.138400,15.08861956,.0001401,53.2191,315.1291,105.3251,254.7896,0,U,49740,999,8578,-.26536E-3,-.4511E-4,0
STARLINK-3244,2021-115T,2023-06-13T20:32:21.493248,15.08839130,.0001197,53.2185,317.5578,77.4121,282.7005,0,U,49741,999,8570,.46871E-4,.458E-5,0
STARLINK-3202,2021-115U,2023-06-14T03:13:43.040352,15.08843952,.0000959,53.2180,316.2996,90.5807,269.5295,0,U,49742,999,8574,.34024E-4,.254E-5,0
STARLINK-3239,2021-115V,2023-06-14T12:20:54.116736,15.08839923,.0001106,53.2182,314.5267,99.0110,261.1007,0,U,49743,999,8580,.35215E-4,.273E-5,0
STARLINK-3231,2021-115W,2023-06-14T11:06:42.591744,15.08841935,.0001285,53.2184,314.7211,89.4642,270.6497,0,U,49744,999,8579,-.32998E-5,-.34E-5,0
STARLINK-3241,2021-115X,2023-06-13T19:07:34.160160,15.08834903,.0000942,53.2182,317.7855,78.6562,281.4536,0,U,49745,999,8458,.42051E-4,.381E-5,0
STARLINK-3233,2021-115Y,2023-06-14T09:56:27.667104,15.08832245,.0001253,53.2157,315.0458,89.1428,270.9708,0,U,49746,999,8578,.22533E-3,.3299E-4,0
STARLINK-3247,2021-115Z,2023-06-14T03:19:00.912000,15.08843054,.0000956,53.2180,316.2833,83.9989,276.1112,0,U,49747,999,8574,.38882E-4,.331E-5,0
STARLINK-3248,2021-115AA,2023-06-14T10:07:03.400032,15.08838937,.0001043,53.2181,315.0115,68.2460,291.8643,0,U,49748,999,8579,.36241E-4,.289E-5,0
STARLINK-3250,2021-115AB,2023-06-14T09:51:09.517248,15.08840165,.0001035,53.2163,315.0630,79.4851,280.6257,0,U,49749,999,8578,.1614E-3,.2282E-4,0
STARLINK-3236,2021-115AC,2023-06-14T08:43:38.841600,15.08838848,.0001263,53.2183,315.2784,106.1691,253.9440,0,U,49750,999,8578,.2079E-4,.43E-6,0
STARLINK-3229,2021-115AD,2023-06-13T13:17:49.011936,15.08841518,.0001221,53.2178,318.8764,84.4742,275.6390,0,U,49751,999,8566,-.31024E-4,-.782E-5,0
STARLINK-3209,2021-115AE,2023-06-14T09:06:10.327680,15.08839873,.000122,53.2172,305.2084,85.0814,275.0317,0,U,49752,999,8592,.62693E-4,.71E-5,0
STARLINK-3200,2021-115AF,2023-06-13T19:53:52.853280,15.08840829,.0001124,53.2173,317.6727,61.9900,298.1206,0,U,49753,999,8459,.14121E-4,-.63E-6,0
STARLINK-3193,2021-115AG,2023-06-14T09:10:06.629952,15.08836915,.0001042,53.2181,305.2915,96.5770,263.5340,0,U,49754,999,8592,.61286E-4,.688E-5,0
