STARLINK-3218           
1 49725U 21115B   23164.84749783  .00000153  00000+0  27685-4 0  9993
2 49725  53.2177 317.6894 0001008  74.8981 285.2123 15.08839195 84596
STARLINK-3237           
1 49726U 21115C   23165.46112477  .00000824  00000+0  69867-4 0  9990
2 49726  53.2193 324.8361 0001213  88.1874 271.9257 15.08838518 85657
STARLINK-3242           
1 49727U 21115D   23165.46480777 -.00000163  00000+0  78233-5 0  9997
2 49727  53.2183 324.8161 0001014  98.5228 261.5879 15.08835938 85661
STARLINK-3240           
1 49728U 21115E   23164.47488609 -.00000745  00000+0 -28756-4 0  9991
2 49728  53.2184 329.2571 0001227  95.6470 264.4662 15.08839016 85506
STARLINK-3251           
1 49729U 21115F   23164.47952480  .00000235  00000+0  32879-4 0  9998
2 49729  53.2172 329.2489 0001052  82.9760 277.1352 15.08835246 85507
STARLINK-3249           
1 49730U 21115G   23165.48048901  .00002271  00000+0  16078-3 0  9990
2 49730  53.2180 324.7537 0001060  91.7674 268.3440 15.08832191 85655
STARLINK-3228           
1 49731U 21115H   23164.87968432  .00004533  00000+0  30264-3 0  9999
2 49731  53.2165 327.4395 0001175  98.4199 261.6926 15.08846918 84458
STARLINK-3246           
1 49732U 21115J   23165.48784424  .00000353  00000+0  40264-4 0  9993
2 49732  53.2199 324.6837 0001303  85.5524 274.5617 15.08836625 85655
STARLINK-3252           
1 49733U 21115K   23165.48321078 -.00000047  00000+0  15143-4 0  9995
2 49733  53.2191 324.7357 0001123 100.8721 259.2398 15.08835361 85658
STARLINK-3238           
1 49734U 21115L   23165.43629067 -.00000300  00000+0 -78518-6 0  9990
2 49734  53.2174 314.9686 0001065 101.4201 258.6911 15.08837766 85791
STARLINK-3113           
1 49735U 21115M   23164.75552009  .00000322  00000+0  38332-4 0  9996
2 49735  53.2180 327.9720 0000977 101.9369 258.1732 15.08837987 84434
STARLINK-3148           
1 49736U 21115N   23164.45100591  .00000111  00000+0  25058-4 0  9996
2 49736  53.2173 319.3754 0000790  89.1040 271.0043 15.08833802 85640
STARLINK-3225           
1 49737U 21115P   23165.43996988  .00003473  00000+0  23624-3 0  9999
2 49737  53.2169 314.9245 0001049  79.8013 280.3097 15.08830857 85791
STARLINK-3143           
1 49738U 21115Q   23164.85116332  .00000276  00000+0  35396-4 0  9990
2 49738  53.2166 317.5707 0001146  81.8013 278.3109 15.08841929 84592
STARLINK-3155           
1 49739U 21115R   23164.83184784  .00001220  00000+0  94707-4 0  9996
2 49739  53.2174 327.6571 0001053  82.6041 277.5071 15.08841211 85550
STARLINK-3226           
1 49740U 21115S   23165.38939975 -.00004511  00000+0 -26536-3 0  9991
2 49740  53.2191 315.1291 0001401 105.3251 254.7896 15.08861956 85780
STARLINK-3244           
1 49741U 21115T   23164.85580432  .00000458  00000+0  46871-4 0  9992
2 49741  53.2185 317.5578 0001197  77.4121 282.7005 15.08839130 85709
STARLINK-3202           
1 49742U 21115U   23165.13452593  .00000254  00000+0  34024-4 0  9992
2 49742  53.2180 316.2996 0000959  90.5807 269.5295 15.08843952 85742
STARLINK-3239           
1 49743U 21115V   23165.51451524  .00000273  00000+0  35215-4 0  9992
2 49743  53.2182 314.5267 0001106  99.0110 261.1007 15.08839923 85802
STARLINK-3231           
1 49744U 21115W   23165.46299296 -.00000340  00000+0 -32998-5 0  9996
2 49744  53.2184 314.7211 0001285  89.4642 270.6497 15.08841935 85799
STARLINK-3241           
1 49745U 21115X   23164.79692315  .00000381  00000+0  42051-4 0  9994
2 49745  53.2182 317.7855 0000942  78.6562 281.4536 15.08834903 84582
STARLINK-3233           
1 49746U 21115Y   23165.41420911  .00003299  00000+0  22533-3 0  9999
2 49746  53.2157 315.0458 0001253  89.1428 270.9708 15.08832245 85783
STARLINK-3247           
1 49747U 21115Z   23165.13820500  .00000331  00000+0  38882-4 0  9996
2 49747  53.2180 316.2833 0000956  83.9989 276.1112 15.08843054 85746
STARLINK-3248           
1 49748U 21115AA  23165.42156713  .00000289  00000+0  36241-4 0  9996
2 49748  53.2181 315.0115 0001043  68.2460 291.8643 15.08838937 85798
STARLINK-3250           
1 49749U 21115AB  23165.41052682  .00002282  00000+0  16140-3 0  9996
2 49749  53.2163 315.0630 0001035  79.4851 280.6257 15.08840165 85782
STARLINK-3236           
1 49750U 21115AC  23165.36364400  .00000043  00000+0  20790-4 0  9996
2 49750  53.2183 315.2784 0001263 106.1691 253.9440 15.08838848 85783
STARLINK-3229           
1 49751U 21115AD  23164.55403949 -.00000782  00000+0 -31024-4 0  9993
2 49751  53.2178 318.8764 0001221  84.4742 275.6390 15.08841518 85664
STARLINK-3209           
1 49752U 21115AE  23165.37928620  .00000710  00000+0  62693-4 0  9998
2 49752  53.2172 305.2084 0001220  85.0814 275.0317 15.08839873 85923
STARLINK-3200           
1 49753U 21115AF  23164.82908395 -.00000063  00000+0  14121-4 0  9990
2 49753  53.2173 317.6727 0001124  61.9900 298.1206 15.08840829 84596
STARLINK-3193           
1 49754U 21115AG  23165.38202118  .00000688  00000+0  61286-4 0  9999
2 49754  53.2181 305.2915 0001042  96.5770 263.5340 15.08836915 85920
